{"type": "FeatureCollection", "features": [{"type": "Feature", "properties": {"norad_id": 2807, "name": "OPS 7218 (TRANSIT 16)", "group": "nnss", "lat": -66.86846446934717, "lon": -6.6110324157723985, "alt_km": 1092.7991982104504, "timestamp": "2025-12-08T13:49:32.060947+00:00", "meta": {"OBJECT_NAME": "OPS 7218 (TRANSIT 16)", "OBJECT_ID": "1967-048A", "EPOCH": "2025-12-08T07:06:05.187168", "MEAN_MOTION": 13.50721028, "ECCENTRICITY": 0.00217586, "INCLINATION": 89.6732, "RA_OF_ASC_NODE": 354.1637, "ARG_OF_PERICENTER": 125.9979, "MEAN_ANOMALY": 245.5756, "EPHEMERIS_TYPE": 0, "CLASSIFICATION_TYPE": "U", "NORAD_CAT_ID": 2807, "ELEMENT_SET_NO": 999, "REV_AT_EPOCH": 88216, "BSTAR": 0.00023995005, "MEAN_MOTION_DOT": 1.65e-06, "MEAN_MOTION_DDOT": 0}, "tle": {"line1": "1 02807U 67048A   25342.29589337  .00000165  00000+0  23995-3 0  9996", "line2": "2 02807  89.6732 354.1637 0021758 125.9979 245.5756 13.50721028882166"}}, "geometry": {"type": "Point", "coordinates": [-6.6110324157723985, -66.86846446934717]}}, {"type": "Feature", "properties": {"norad_id": 2965, "name": "OPS 4947 (TRANSIT 17)", "group": "nnss", "lat": -42.864329482399036, "lon": 24.056754834465224, "alt_km": 1054.5464210229948, "timestamp": "2025-12-08T13:49:32.060969+00:00", "meta": {"OBJECT_NAME": "OPS 4947 (TRANSIT 17)", "OBJECT_ID": "1967-092A", "EPOCH": "2025-12-08T03:41:44.964960", "MEAN_MOTION": 13.53451818, "ECCENTRICITY": 0.00459336, "INCLINATION": 89.25, "RA_OF_ASC_NODE": 24.7854, "ARG_OF_PERICENTER": 248.2573, "MEAN_ANOMALY": 173.1766, "EPHEMERIS_TYPE": 0, "CLASSIFICATION_TYPE": "U", "NORAD_CAT_ID": 2965, "ELEMENT_SET_NO": 999, "REV_AT_EPOCH": 87035, "BSTAR": 0.00025156442, "MEAN_MOTION_DOT": 1.81e-06, "MEAN_MOTION_DDOT": 0}, "tle": {"line1": "1 02965U 67092A   25342.15399265  .00000181  00000+0  25156-3 0  9993", "line2": "2 02965  89.2500  24.7854 0045933 248.2573 173.1766 13.53451818870356"}}, "geometry": {"type": "Point", "coordinates": [24.056754834465224, -42.864329482399036]}}, {"type": "Feature", "properties": {"norad_id": 3133, "name": "OPS 7034 (TRANSIT 18)", "group": "nnss", "lat": 46.365292478182404, "lon": 93.65589311644, "alt_km": 1025.472441394295, "timestamp": "2025-12-08T13:49:32.060983+00:00", "meta": {"OBJECT_NAME": "OPS 7034 (TRANSIT 18)", "OBJECT_ID": "1968-012A", "EPOCH": "2025-12-08T06:37:58.388736", "MEAN_MOTION": 13.51564218, "ECCENTRICITY": 0.00734209, "INCLINATION": 90.0275, "RA_OF_ASC_NODE": 273.6262, "ARG_OF_PERICENTER": 182.1015, "MEAN_ANOMALY": 294.7409, "EPHEMERIS_TYPE": 0, "CLASSIFICATION_TYPE": "U", "NORAD_CAT_ID": 3133, "ELEMENT_SET_NO": 999, "REV_AT_EPOCH": 56858, "BSTAR": 0.00029361932, "MEAN_MOTION_DOT": 2.04e-06, "MEAN_MOTION_DDOT": 0}, "tle": {"line1": "1 03133U 68012A   25342.27637024  .00000204  00000+0  29362-3 0  9994", "line2": "2 03133  90.0275 273.6262 0073420 182.1015 294.7409 13.51564218568580"}}, "geometry": {"type": "Point", "coordinates": [93.65589311644, 46.365292478182404]}}, {"type": "Feature", "properties": {"norad_id": 4507, "name": "NNSS 19 (TRANSIT 19)", "group": "nnss", "lat": 70.02909486511163, "lon": 54.54657855258777, "alt_km": 1183.0999540555395, "timestamp": "2025-12-08T13:49:32.060994+00:00", "meta": {"OBJECT_NAME": "NNSS 19 (TRANSIT 19)", "OBJECT_ID": "1970-067A", "EPOCH": "2025-12-08T06:10:11.758656", "MEAN_MOTION": 13.51313509, "ECCENTRICITY": 0.01708225, "INCLINATION": 90.0057, "RA_OF_ASC_NODE": 234.5307, "ARG_OF_PERICENTER": 306.475, "MEAN_ANOMALY": 52.0763, "EPHEMERIS_TYPE": 0, "CLASSIFICATION_TYPE": "U", "NORAD_CAT_ID": 4507, "ELEMENT_SET_NO": 999, "REV_AT_EPOCH": 72161, "BSTAR": 0.00034712525, "MEAN_MOTION_DOT": 2.54e-06, "MEAN_MOTION_DDOT": 0}, "tle": {"line1": "1 04507U 70067A   25342.25708054  .00000254  00000+0  34713-3 0  9994", "line2": "2 04507  90.0057 234.5307 0170822 306.4750  52.0763 13.51313509721619"}}, "geometry": {"type": "Point", "coordinates": [54.54657855258777, 70.02909486511163]}}, {"type": "Feature", "properties": {"norad_id": 6909, "name": "NNSS 20 (TRANSIT 20)", "group": "nnss", "lat": -61.855516640504106, "lon": 75.38563868521516, "alt_km": 1102.4390755185277, "timestamp": "2025-12-08T13:49:32.061005+00:00", "meta": {"OBJECT_NAME": "NNSS 20 (TRANSIT 20)", "OBJECT_ID": "1973-081A", "EPOCH": "2025-12-08T07:24:35.377056", "MEAN_MOTION": 13.71431296, "ECCENTRICITY": 0.0156601, "INCLINATION": 89.8561, "RA_OF_ASC_NODE": 255.1205, "ARG_OF_PERICENTER": 91.4321, "MEAN_ANOMALY": 270.4787, "EPHEMERIS_TYPE": 0, "CLASSIFICATION_TYPE": "U", "NORAD_CAT_ID": 6909, "ELEMENT_SET_NO": 999, "REV_AT_EPOCH": 80300, "BSTAR": 0.0003803836, "MEAN_MOTION_DOT": 3.85e-06, "MEAN_MOTION_DDOT": 0}, "tle": {"line1": "1 06909U 73081A   25342.30874279  .00000385  00000+0  38038-3 0  9999", "line2": "2 06909  89.8561 255.1205 0156601  91.4321 270.4787 13.71431296803005"}}, "geometry": {"type": "Point", "coordinates": [75.38563868521516, -61.855516640504106]}}, {"type": "Feature", "properties": {"norad_id": 10457, "name": "TRANSAT", "group": "nnss", "lat": 30.25785294235149, "lon": -101.46095508346916, "alt_km": 1063.1098620348175, "timestamp": "2025-12-08T13:49:32.061016+00:00", "meta": {"OBJECT_NAME": "TRANSAT", "OBJECT_ID": "1977-106A", "EPOCH": "2025-12-08T08:03:39.916224", "MEAN_MOTION": 13.48942642, "ECCENTRICITY": 0.00249804, "INCLINATION": 89.6482, "RA_OF_ASC_NODE": 78.7529, "ARG_OF_PERICENTER": 202.4199, "MEAN_ANOMALY": 221.7517, "EPHEMERIS_TYPE": 0, "CLASSIFICATION_TYPE": "U", "NORAD_CAT_ID": 10457, "ELEMENT_SET_NO": 999, "REV_AT_EPOCH": 36684, "BSTAR": 0.0002264346, "MEAN_MOTION_DOT": 1.52e-06, "MEAN_MOTION_DDOT": 0}, "tle": {"line1": "1 10457U 77106A   25342.33587866  .00000152  00000+0  22643-3 0  9997", "line2": "2 10457  89.6482  78.7529 0024980 202.4199 221.7517 13.48942642366849"}}, "geometry": {"type": "Point", "coordinates": [-101.46095508346916, 30.25785294235149]}}, {"type": "Feature", "properties": {"norad_id": 12458, "name": "NOVA 1", "group": "nnss", "lat": 75.43856977515829, "lon": 92.01260348178424, "alt_km": 1155.8679621852943, "timestamp": "2025-12-08T13:49:32.061026+00:00", "meta": {"OBJECT_NAME": "NOVA 1", "OBJECT_ID": "1981-044A", "EPOCH": "2025-12-08T06:28:27.811776", "MEAN_MOTION": 13.23277824, "ECCENTRICITY": 0.00157666, "INCLINATION": 89.8524, "RA_OF_ASC_NODE": 91.4484, "ARG_OF_PERICENTER": 114.9789, "MEAN_ANOMALY": 302.2959, "EPHEMERIS_TYPE": 0, "CLASSIFICATION_TYPE": "U", "NORAD_CAT_ID": 12458, "ELEMENT_SET_NO": 999, "REV_AT_EPOCH": 15127, "BSTAR": 0.00028285032, "MEAN_MOTION_DOT": 1.29e-06, "MEAN_MOTION_DDOT": 0}, "tle": {"line1": "1 12458U 81044A   25342.26976634  .00000129  00000+0  28285-3 0  9995", "line2": "2 12458  89.8524  91.4484 0015766 114.9789 302.2959 13.23277824151277"}}, "geometry": {"type": "Point", "coordinates": [92.01260348178424, 75.43856977515829]}}, {"type": "Feature", "properties": {"norad_id": 15362, "name": "NOVA 3", "group": "nnss", "lat": -48.50434316805836, "lon": 80.62404268163196, "alt_km": 1160.26187498115, "timestamp": "2025-12-08T13:49:32.061037+00:00", "meta": {"OBJECT_NAME": "NOVA 3", "OBJECT_ID": "1984-110A", "EPOCH": "2025-12-08T07:04:45.642144", "MEAN_MOTION": 13.23043807, "ECCENTRICITY": 0.00308382, "INCLINATION": 90.1223, "RA_OF_ASC_NODE": 80.4824, "ARG_OF_PERICENTER": 344.4998, "MEAN_ANOMALY": 69.2062, "EPHEMERIS_TYPE": 0, "CLASSIFICATION_TYPE": "U", "NORAD_CAT_ID": 15362, "ELEMENT_SET_NO": 999, "REV_AT_EPOCH": 98640, "BSTAR": 0.00026414395, "MEAN_MOTION_DOT": 1.2e-06, "MEAN_MOTION_DDOT": 0}, "tle": {"line1": "1 15362U 84110A   25342.29497271  .00000120  00000+0  26414-3 0  9990", "line2": "2 15362  90.1223  80.4824 0030838 344.4998  69.2062 13.23043807986408"}}, "geometry": {"type": "Point", "coordinates": [80.62404268163196, -48.50434316805836]}}, {"type": "Feature", "properties": {"norad_id": 15935, "name": "OSCAR 30", "group": "nnss", "lat": -19.446807477976897, "lon": -80.27931185101033, "alt_km": 1157.353597827153, "timestamp": "2025-12-08T13:49:32.061048+00:00", "meta": {"OBJECT_NAME": "OSCAR 30", "OBJECT_ID": "1985-066A", "EPOCH": "2025-12-08T07:35:56.736960", "MEAN_MOTION": 13.36077215, "ECCENTRICITY": 0.01694135, "INCLINATION": 90.1648, "RA_OF_ASC_NODE": 99.7747, "ARG_OF_PERICENTER": 96.2484, "MEAN_ANOMALY": 294.0704, "EPHEMERIS_TYPE": 0, "CLASSIFICATION_TYPE": "U", "NORAD_CAT_ID": 15935, "ELEMENT_SET_NO": 999, "REV_AT_EPOCH": 96394, "BSTAR": 0.00026352867, "MEAN_MOTION_DOT": 1.57e-06, "MEAN_MOTION_DDOT": 0}, "tle": {"line1": "1 15935U 85066A   25342.31662890  .00000157  00000+0  26353-3 0  9993", "line2": "2 15935  90.1648  99.7747 0169413  96.2484 294.0704 13.36077215963945"}}, "geometry": {"type": "Point", "coordinates": [-80.27931185101033, -19.446807477976897]}}, {"type": "Feature", "properties": {"norad_id": 15936, "name": "OSCAR 24", "group": "nnss", "lat": -84.85465075843504, "lon": 94.21892570690846, "alt_km": 1258.9184496132357, "timestamp": "2025-12-08T13:49:32.061059+00:00", "meta": {"OBJECT_NAME": "OSCAR 24", "OBJECT_ID": "1985-066B", "EPOCH": "2025-12-08T07:09:20.759616", "MEAN_MOTION": 13.35934856, "ECCENTRICITY": 0.01704482, "INCLINATION": 90.1788, "RA_OF_ASC_NODE": 92.2268, "ARG_OF_PERICENTER": 102.7352, "MEAN_ANOMALY": 276.4044, "EPHEMERIS_TYPE": 0, "CLASSIFICATION_TYPE": "U", "NORAD_CAT_ID": 15936, "ELEMENT_SET_NO": 999, "REV_AT_EPOCH": 96584, "BSTAR": 0.000245338, "MEAN_MOTION_DOT": 1.47e-06, "MEAN_MOTION_DDOT": 0}, "tle": {"line1": "1 15936U 85066B   25342.29815694  .00000147  00000+0  24534-3 0  9991", "line2": "2 15936  90.1788  92.2268 0170448 102.7352 276.4044 13.35934856965848"}}, "geometry": {"type": "Point", "coordinates": [94.21892570690846, -84.85465075843504]}}]}